OBJECT_NAME,OBJECT_ID,EPOCH,MEAN_MOTION,ECCENTRICITY,INCLINATION,RA_OF_ASC_NODE,ARG_OF_PERICENTER,MEAN_ANOMALY,EPHEMERIS_TYPE,CLASSIFICATION_TYPE,NORAD_CAT_ID,ELEMENT_SET_NO,REV_AT_EPOCH,BSTAR,MEAN_MOTION_DOT,MEAN_MOTION_DDOT
GSAT0225 (GALILEO 29),2024-079A,2026-07-01T18:46:55.511616,1.70473947,.00004196,55.1266,100.6726,302.1168,241.0834,0,U,59598,999,1356,0,-.14E-6,0
GSAT0227 (GALILEO 30),2024-079C,2026-07-02T06:05:53.832192,1.70474094,.000228,55.1233,100.6575,54.9212,305.1058,0,U,59600,999,1362,0,-.12E-6,0
GSAT0232 (GALILEO 32),2024-167A,2026-07-01T07:32:38.669280,1.70474427,.00062836,55.1822,220.9262,229.8495,129.0304,0,U,61182,999,1111,0,.74E-6,0
GSAT0226 (GALILEO 31),2024-167B,2026-07-02T15:11:51.353664,1.70474396,.00030551,55.1805,220.8970,233.5158,306.1382,0,U,61183,999,1111,0,.75E-6,0
BEIDOU-3 M25 (C47),2024-168B,2026-07-03T17:25:36.657408,1.86230245,.00032639,54.4579,301.6685,295.0855,171.3935,0,U,61186,999,1209,0,-.59E-6,0
BEIDOU-3 M27 (C49),2024-168C,2026-07-02T21:41:27.775680,1.86230358,.00011654,54.4540,301.6798,47.0059,3.1786,0,U,61187,999,955,0,-.61E-6,0
GPS BIII-7  (PRN 01),2024-242A,2026-06-29T19:34:38.856864,2.00572141,.00176262,54.8437,333.6698,4.4449,3.3802,0,U,62339,999,1151,0,-.94E-6,0
QZS-6 (QZSS/PRN 200),2025-023A,2026-07-04T02:20:30.189696,1.00271094,.000204,0.0409,285.8861,192.2541,289.6314,0,U,62876,999,511,0,-.221E-5,0
COSMOS 2584 (704K),2025-042A,2026-07-02T03:45:22.736160,2.13103981,.0006178,65.0933,72.2932,224.7421,135.2742,0,U,63130,999,1036,0,-.11E-6,0
GPS BIII-8  (PRN 21),2025-116A,2026-07-01T19:12:32.597856,2.00575100,.00081212,55.2438,30.5429,344.2074,199.7112,0,U,64202,999,816,0,-.64E-6,0
COSMOS 2596 (708K),2025-206B,2026-07-04T02:44:57.844896,2.13100941,.00111417,64.6242,314.3970,309.2418,229.0730,0,U,65590,999,627,0,-.45E-6,0
GSAT0233 (GALILEO 33),2025-302A,2026-07-02T11:28:47.771616,1.70474199,.00009228,54.3433,101.6961,191.5650,349.5257,0,U,67160,999,338,0,-.1E-6,0
GSAT0234 (GALILEO 34),2025-302C,2026-07-03T22:36:11.607264,1.70474143,.00023351,54.3462,101.6534,315.3055,224.0559,0,U,67162,999,346,0,-.3E-7,0
GPS BIII-9  (PRN 20),2026-017A,2026-07-03T03:37:52.655232,2.00570852,.00215535,55.0981,88.1147,259.0421,100.7528,0,U,67588,999,43193,0,-.11E-6,0
GPS BIII-10 (PRN 13),2026-087A,2026-07-01T20:46:26.008320,2.00571676,.00206073,54.9627,207.2074,106.6329,250.3869,0,U,68791,999,112,0,.69E-6,0
